start=new Date('2023-03-13T00:00:00.000Z').valueOf();
sats=[{"DECAY_DATE":null,"SEMIMAJOR_AXIS":"6925.358","TLE_LINE2":"2 47651  53.0531 298.7516 0001126  51.8539 308.2551 15.06396884114719","MEAN_ANOMALY":"308.2551","ECCENTRICITY":"0.00011260","TLE_LINE1":"1 47651U 21012AH  23071.59682369  .00002295  00000-0  17292-3 0  9992","BSTAR":"0.00017292000000","CENTER_NAME":"EARTH","OBJECT_TYPE":"PAYLOAD","PERIOD":"95.592","MEAN_MOTION":"15.06396884","REV_AT_EPOCH":"11471","ELEMENT_SET_NO":"999","MEAN_MOTION_DOT":"0.00002295","EPHEMERIS_TYPE":"0","MEAN_ELEMENT_THEORY":"SGP4","MEAN_MOTION_DDOT":"0.0000000000000","REF_FRAME":"TEME","RA_OF_ASC_NODE":"298.7516","EPOCH":"2023-03-12T14:19:25.566816","TIME_SYSTEM":"UTC","APOAPSIS":"548.003","ARG_OF_PERICENTER":"51.8539","RCS_SIZE":"LARGE","SITE":"AFETR","CLASSIFICATION_TYPE":"U","PERIAPSIS":"546.443","LAUNCH_DATE":"2021-02-16","INCLINATION":"53.0531","OBJECT_NAME":"STARLINK-2035","GP_ID":"227936473","NORAD_CAT_ID":"47651","FILE":"3858580","COUNTRY_CODE":"US","OBJECT_ID":"2021-012AH"},{"ECCENTRICITY":"0.00012730","MEAN_ANOMALY":"291.8948","SEMIMAJOR_AXIS":"6925.330","DECAY_DATE":null,"TLE_LINE2":"2 47652  53.0533 298.6073 0001273  68.2176 291.8948 15.06406196115234","MEAN_MOTION":"15.06406196","PERIOD":"95.592","REV_AT_EPOCH":"11523","BSTAR":"0.00051926000000","TLE_LINE1":"1 47652U 21012AJ  23071.61893283  .00007463  00000-0  51926-3 0  9999","OBJECT_TYPE":"PAYLOAD","CENTER_NAME":"EARTH","ELEMENT_SET_NO":"999","EPHEMERIS_TYPE":"0","MEAN_MOTION_DOT":"0.00007463","RA_OF_ASC_NODE":"298.6073","REF_FRAME":"TEME","EPOCH":"2023-03-12T14:51:15.796512","MEAN_ELEMENT_THEORY":"SGP4","MEAN_MOTION_DDOT":"0.0000000000000","ARG_OF_PERICENTER":"68.2176","TIME_SYSTEM":"UTC","APOAPSIS":"548.076","INCLINATION":"53.0533","OBJECT_NAME":"STARLINK-2036","LAUNCH_DATE":"2021-02-16","GP_ID":"227961809","CLASSIFICATION_TYPE":"U","SITE":"AFETR","RCS_SIZE":"LARGE","PERIAPSIS":"546.313","NORAD_CAT_ID":"47652","OBJECT_ID":"2021-012AJ","COUNTRY_CODE":"US","FILE":"3858743"},{"TLE_LINE1":"1 47653U 21012AK  23071.01625412  .00018646  00000-0  12687-2 0  9996","BSTAR":"0.00126870000000","CENTER_NAME":"EARTH","OBJECT_TYPE":"PAYLOAD","PERIOD":"95.595","MEAN_MOTION":"15.06360140","REV_AT_EPOCH":"11541","DECAY_DATE":null,"SEMIMAJOR_AXIS":"6925.471","TLE_LINE2":"2 47653  53.0531 281.3143 0000603  94.7585 265.3473 15.06360140115411","MEAN_ANOMALY":"265.3473","ECCENTRICITY":"0.00006030","MEAN_MOTION_DDOT":"0.0000000000000","MEAN_ELEMENT_THEORY":"SGP4","RA_OF_ASC_NODE":"281.3143","REF_FRAME":"TEME","EPOCH":"2023-03-12T00:23:24.355968","ELEMENT_SET_NO":"999","MEAN_MOTION_DOT":"0.00018646","EPHEMERIS_TYPE":"0","RCS_SIZE":"LARGE","SITE":"AFETR","CLASSIFICATION_TYPE":"U","PERIAPSIS":"546.918","LAUNCH_DATE":"2021-02-16","INCLINATION":"53.0531","OBJECT_NAME":"STARLINK-2037","GP_ID":"227930820","TIME_SYSTEM":"UTC","APOAPSIS":"547.753","ARG_OF_PERICENTER":"94.7585","FILE":"3858534","COUNTRY_CODE":"US","OBJECT_ID":"2021-012AK","NORAD_CAT_ID":"47653"},{"OBJECT_ID":"2021-012AL","COUNTRY_CODE":"US","FILE":"3858534","NORAD_CAT_ID":"47654","GP_ID":"227931085","INCLINATION":"53.0526","OBJECT_NAME":"STARLINK-2038","LAUNCH_DATE":"2021-02-16","PERIAPSIS":"546.407","SITE":"AFETR","CLASSIFICATION_TYPE":"U","RCS_SIZE":"LARGE","ARG_OF_PERICENTER":"96.1277","APOAPSIS":"547.926","TIME_SYSTEM":"UTC","RA_OF_ASC_NODE":"301.2647","EPOCH":"2023-03-12T00:36:42.593472","REF_FRAME":"TEME","MEAN_ELEMENT_THEORY":"SGP4","MEAN_MOTION_DDOT":"0.0000000000000","EPHEMERIS_TYPE":"0","MEAN_MOTION_DOT":"0.00015752","ELEMENT_SET_NO":"999","REV_AT_EPOCH":"11514","PERIOD":"95.591","MEAN_MOTION":"15.06415319","OBJECT_TYPE":"PAYLOAD","CENTER_NAME":"EARTH","BSTAR":"0.00107360000000","TLE_LINE1":"1 47654U 21012AL  23071.02549298  .00015752  00000-0  10736-2 0  9993","ECCENTRICITY":"0.00010970","MEAN_ANOMALY":"263.9837","TLE_LINE2":"2 47654  53.0526 301.2647 0001097  96.1277 263.9837 15.06415319115146","SEMIMAJOR_AXIS":"6925.302","DECAY_DATE":null},{"MEAN_ANOMALY":"240.5460","ECCENTRICITY":"0.00010540","TLE_LINE2":"2 47655  53.0510 301.0065 0001054 119.5634 240.5460 15.06410466115154","DECAY_DATE":null,"SEMIMAJOR_AXIS":"6925.316","REV_AT_EPOCH":"11515","MEAN_MOTION":"15.06410466","PERIOD":"95.591","CENTER_NAME":"EARTH","OBJECT_TYPE":"PAYLOAD","TLE_LINE1":"1 47655U 21012AM  23071.08446754  .00012756  00000-0  87344-3 0  9994","BSTAR":"0.00087344000000","MEAN_MOTION_DOT":"0.00012756","EPHEMERIS_TYPE":"0","ELEMENT_SET_NO":"999","REF_FRAME":"TEME","RA_OF_ASC_NODE":"301.0065","EPOCH":"2023-03-12T02:01:37.995456","MEAN_ELEMENT_THEORY":"SGP4","MEAN_MOTION_DDOT":"0.0000000000000","ARG_OF_PERICENTER":"119.5634","APOAPSIS":"547.911","TIME_SYSTEM":"UTC","GP_ID":"227929841","LAUNCH_DATE":"2021-02-16","INCLINATION":"53.0510","OBJECT_NAME":"STARLINK-2039","PERIAPSIS":"546.452","RCS_SIZE":"LARGE","SITE":"AFETR","CLASSIFICATION_TYPE":"U","NORAD_CAT_ID":"47655","OBJECT_ID":"2021-012AM","FILE":"3858534","COUNTRY_CODE":"US"},{"REV_AT_EPOCH":"11498","MEAN_MOTION":"15.06395031","PERIOD":"95.592","CENTER_NAME":"EARTH","OBJECT_TYPE":"PAYLOAD","TLE_LINE1":"1 47656U 21012AN  23071.56548513  .00004150  00000-0  29737-3 0  9995","BSTAR":"0.00029737000000","MEAN_ANOMALY":"226.9181","ECCENTRICITY":"0.00011600","TLE_LINE2":"2 47656  53.0526 278.8421 0001160 133.1905 226.9181 15.06395031114988","DECAY_DATE":null,"SEMIMAJOR_AXIS":"6925.364","EPOCH":"2023-03-12T13:34:17.915232","REF_FRAME":"TEME","RA_OF_ASC_NODE":"278.8421","MEAN_ELEMENT_THEORY":"SGP4","MEAN_MOTION_DDOT":"0.0000000000000","MEAN_MOTION_DOT":"0.00004150","EPHEMERIS_TYPE":"0","ELEMENT_SET_NO":"999","GP_ID":"227936206","LAUNCH_DATE":"2021-02-16","INCLINATION":"53.0526","OBJECT_NAME":"STARLINK-2040","PERIAPSIS":"546.425","RCS_SIZE":"LARGE","CLASSIFICATION_TYPE":"U","SITE":"AFETR","ARG_OF_PERICENTER":"133.1905","APOAPSIS":"548.032","TIME_SYSTEM":"UTC","OBJECT_ID":"2021-012AN","FILE":"3858591","COUNTRY_CODE":"US","NORAD_CAT_ID":"47656"},{"OBJECT_ID":"2021-012AP","FILE":"3858743","COUNTRY_CODE":"US","NORAD_CAT_ID":"47657","LAUNCH_DATE":"2021-02-16","INCLINATION":"53.0529","OBJECT_NAME":"STARLINK-2041","GP_ID":"227962060","RCS_SIZE":"LARGE","SITE":"AFETR","CLASSIFICATION_TYPE":"U","PERIAPSIS":"546.259","ARG_OF_PERICENTER":"72.2296","TIME_SYSTEM":"UTC","APOAPSIS":"548.061","RA_OF_ASC_NODE":"298.5215","EPOCH":"2023-03-12T15:17:47.730336","REF_FRAME":"TEME","MEAN_MOTION_DDOT":"0.0000000000000","MEAN_ELEMENT_THEORY":"SGP4","ELEMENT_SET_NO":"999","MEAN_MOTION_DOT":"0.00019859","EPHEMERIS_TYPE":"0","MEAN_MOTION":"15.06417525","PERIOD":"95.591","REV_AT_EPOCH":"11523","TLE_LINE1":"1 47657U 21012AP  23071.63735799  .00019859  00000-0  13477-2 0  9993","BSTAR":"0.00134770000000","CENTER_NAME":"EARTH","OBJECT_TYPE":"PAYLOAD","MEAN_ANOMALY":"287.8835","ECCENTRICITY":"0.00013010","DECAY_DATE":null,"SEMIMAJOR_AXIS":"6925.295","TLE_LINE2":"2 47657  53.0529 298.5215 0001301  72.2296 287.8835 15.06417525115239"},{"COUNTRY_CODE":"US","FILE":"3858534","OBJECT_ID":"2021-012AQ","NORAD_CAT_ID":"47658","PERIAPSIS":"546.495","SITE":"AFETR","CLASSIFICATION_TYPE":"U","RCS_SIZE":"LARGE","GP_ID":"227930585","INCLINATION":"53.0524","OBJECT_NAME":"STARLINK-2042","LAUNCH_DATE":"2021-02-16","APOAPSIS":"547.872","TIME_SYSTEM":"UTC","ARG_OF_PERICENTER":"80.9327","MEAN_MOTION_DDOT":"0.0000000000000","MEAN_ELEMENT_THEORY":"SGP4","REF_FRAME":"TEME","EPOCH":"2023-03-12T00:47:19.758912","RA_OF_ASC_NODE":"301.2368","EPHEMERIS_TYPE":"0","MEAN_MOTION_DOT":"0.00013314","ELEMENT_SET_NO":"999","OBJECT_TYPE":"PAYLOAD","CENTER_NAME":"EARTH","BSTAR":"0.00091078000000","TLE_LINE1":"1 47658U 21012AQ  23071.03286758  .00013314  00000-0  91078-3 0  9998","REV_AT_EPOCH":"11516","MEAN_MOTION":"15.06409708","PERIOD":"95.592","TLE_LINE2":"2 47658  53.0524 301.2368 0000994  80.9327 279.1775 15.06409708115167","SEMIMAJOR_AXIS":"6925.319","DECAY_DATE":null,"ECCENTRICITY":"0.00009940","MEAN_ANOMALY":"279.1775"},{"ELEMENT_SET_NO":"999","MEAN_MOTION_DOT":"0.00008720","EPHEMERIS_TYPE":"0","EPOCH":"2023-03-12T17:19:52.115808","REF_FRAME":"TEME","RA_OF_ASC_NODE":"178.1397","MEAN_MOTION_DDOT":"0.0000000000000","MEAN_ELEMENT_THEORY":"SGP4","MEAN_ANOMALY":"289.6943","ECCENTRICITY":"0.00012300","DECAY_DATE":null,"SEMIMAJOR_AXIS":"6925.328","TLE_LINE2":"2 47659  53.0537 178.1397 0001230  70.4178 289.6943 15.06406706116908","MEAN_MOTION":"15.06406706","PERIOD":"95.592","REV_AT_EPOCH":"11690","TLE_LINE1":"1 47659U 21012AR  23071.72213097  .00008720  00000-0  60349-3 0  9993","BSTAR":"0.00060349000000","CENTER_NAME":"EARTH","OBJECT_TYPE":"PAYLOAD","NORAD_CAT_ID":"47659","OBJECT_ID":"2021-012AR","FILE":"3858743","COUNTRY_CODE":"US","ARG_OF_PERICENTER":"70.4178","TIME_SYSTEM":"UTC","APOAPSIS":"548.045","LAUNCH_DATE":"2021-02-16","INCLINATION":"53.0537","OBJECT_NAME":"STARLINK-2043","GP_ID":"227961558","RCS_SIZE":"LARGE","SITE":"AFETR","CLASSIFICATION_TYPE":"U","PERIAPSIS":"546.341"},{"NORAD_CAT_ID":"47660","OBJECT_ID":"2021-012AS","FILE":"3858743","COUNTRY_CODE":"US","ARG_OF_PERICENTER":"58.3775","APOAPSIS":"548.463","TIME_SYSTEM":"UTC","GP_ID":"227961810","LAUNCH_DATE":"2021-02-16","INCLINATION":"53.0539","OBJECT_NAME":"STARLINK-2044","PERIAPSIS":"545.955","RCS_SIZE":"LARGE","SITE":"AFETR","CLASSIFICATION_TYPE":"U","EPHEMERIS_TYPE":"0","MEAN_MOTION_DOT":"0.00003036","ELEMENT_SET_NO":"999","REF_FRAME":"TEME","EPOCH":"2023-03-12T13:01:13.963008","RA_OF_ASC_NODE":"169.5718","MEAN_MOTION_DDOT":"0.0000000000000","MEAN_ELEMENT_THEORY":"SGP4","MEAN_ANOMALY":"301.7391","ECCENTRICITY":"0.00018110","TLE_LINE2":"2 47660  53.0539 169.5718 0001811  58.3775 301.7391 15.06401454117017","DECAY_DATE":null,"SEMIMAJOR_AXIS":"6925.344","REV_AT_EPOCH":"11701","PERIOD":"95.592","MEAN_MOTION":"15.06401454","CENTER_NAME":"EARTH","OBJECT_TYPE":"PAYLOAD","TLE_LINE1":"1 47660U 21012AS  23071.54252272  .00003036  00000-0  22260-3 0  9998","BSTAR":"0.00022260000000"}];
